{
  "type": "FeatureCollection",
  "features": [
    {
      "type": "Feature",
      "geometry": {
        "type": "Point",
        "coordinates": [
          75.18,
          35.72
        ]
      },
      "properties": {
        "id": "e1",
        "elevation_m": 3800
      }
    },
    {
      "type": "Feature",
      "geometry": {
        "type": "Point",
        "coordinates": [
          75.2,
          35.74
        ]
      },
      "properties": {
        "id": "e2",
        "elevation_m": 4500
      }
    },
    {
      "type": "Feature",
      "geometry": {
        "type": "Point",
        "coordinates": [
          75.16,
          35.7
        ]
      },
      "properties": {
        "id": "e3",
        "elevation_m": 3400
      }
    },
    {
      "type": "Feature",
      "geometry": {
        "type": "Point",
        "coordinates": [
          74.72,
          35.82
        ]
      },
      "properties": {
        "id": "e4",
        "elevation_m": 3200
      }
    },
    {
      "type": "Feature",
      "geometry": {
        "type": "Point",
        "coordinates": [
          74.74,
          35.84
        ]
      },
      "properties": {
        "id": "e5",
        "elevation_m": 4100
      }
    },
    {
      "type": "Feature",
      "geometry": {
        "type": "Point",
        "coordinates": [
          74.7,
          35.8
        ]
      },
      "properties": {
        "id": "e6",
        "elevation_m": 2800
      }
    },
    {
      "type": "Feature",
      "geometry": {
        "type": "Point",
        "coordinates": [
          75.12,
          35.68
        ]
      },
      "properties": {
        "id": "e7",
        "elevation_m": 4100
      }
    },
    {
      "type": "Feature",
      "geometry": {
        "type": "Point",
        "coordinates": [
          75.14,
          35.66
        ]
      },
      "properties": {
        "id": "e8",
        "elevation_m": 4800
      }
    },
    {
      "type": "Feature",
      "geometry": {
        "type": "Point",
        "coordinates": [
          75.1,
          35.69
        ]
      },
      "properties": {
        "id": "e9",
        "elevation_m": 3600
      }
    },
    {
      "type": "Feature",
      "geometry": {
        "type": "Point",
        "coordinates": [
          74.71,
          35.71
        ]
      },
      "properties": {
        "id": "e10",
        "elevation_m": 2900
      }
    },
    {
      "type": "Feature",
      "geometry": {
        "type": "Point",
        "coordinates": [
          74.73,
          35.72
        ]
      },
      "properties": {
        "id": "e11",
        "elevation_m": 3300
      }
    },
    {
      "type": "Feature",
      "geometry": {
        "type": "Point",
        "coordinates": [
          75.02,
          35.79
        ]
      },
      "properties": {
        "id": "e12",
        "elevation_m": 3550
      }
    },
    {
      "type": "Feature",
      "geometry": {
        "type": "Point",
        "coordinates": [
          75.04,
          35.81
        ]
      },
      "properties": {
        "id": "e13",
        "elevation_m": 4200
      }
    },
    {
      "type": "Feature",
      "geometry": {
        "type": "Point",
        "coordinates": [
          74.9,
          35.61
        ]
      },
      "properties": {
        "id": "e14",
        "elevation_m": 2600
      }
    },
    {
      "type": "Feature",
      "geometry": {
        "type": "Point",
        "coordinates": [
          74.92,
          35.63
        ]
      },
      "properties": {
        "id": "e15",
        "elevation_m": 3000
      }
    },
    {
      "type": "Feature",
      "geometry": {
        "type": "Point",
        "coordinates": [
          74.85,
          35.35
        ]
      },
      "properties": {
        "id": "e16",
        "elevation_m": 2400
      }
    },
    {
      "type": "Feature",
      "geometry": {
        "type": "Point",
        "coordinates": [
          74.87,
          35.37
        ]
      },
      "properties": {
        "id": "e17",
        "elevation_m": 2700
      }
    },
    {
      "type": "Feature",
      "geometry": {
        "type": "Point",
        "coordinates": [
          75.35,
          35.88
        ]
      },
      "properties": {
        "id": "e_dem_max",
        "elevation_m": 5050
      }
    },
    {
      "type": "Feature",
      "geometry": {
        "type": "Point",
        "coordinates": [
          75.37,
          35.89
        ]
      },
      "properties": {
        "id": "e_dem_n",
        "elevation_m": 4600
      }
    },
    {
      "type": "Feature",
      "geometry": {
        "type": "Point",
        "coordinates": [
          75.33,
          35.87
        ]
      },
      "properties": {
        "id": "e_dem_s",
        "elevation_m": 4400
      }
    },
    {
      "type": "Feature",
      "geometry": {
        "type": "Point",
        "coordinates": [
          75.36,
          35.86
        ]
      },
      "properties": {
        "id": "e_dem_e",
        "elevation_m": 4550
      }
    }
  ]
}
