{
  "type": "FeatureCollection",
  "features": [
    {
      "type": "Feature",
      "geometry": { "type": "Point", "coordinates": [74.82, 35.32] },
      "properties": { "id": "town_skardu_proxy", "name": "Valley Town", "population": 50000 }
    },
    {
      "type": "Feature",
      "geometry": { "type": "Point", "coordinates": [75.05, 35.45] },
      "properties": { "id": "village_east", "name": "East Hamlet", "population": 800 }
    },
    {
      "type": "Feature",
      "geometry": { "type": "Point", "coordinates": [74.65, 35.55] },
      "properties": { "id": "village_north", "name": "North Hamlet", "population": 400 }
    }
  ]
}
